start=new Date('2023-06-26T00:00:00.000Z').valueOf();
sats=[{"TIME_SYSTEM":"UTC","SEMIMAJOR_AXIS":"6937.224","FILE":"3942673","OBJECT_ID":"2022-177AY","TLE_LINE1":"1 54866U 22177AY  23176.46219078  .00000428  00000-0  46726-4 0  9997","NORAD_CAT_ID":"54866","GP_ID":"234550539","RA_OF_ASC_NODE":"89.7790","MEAN_MOTION_DDOT":"0.0000000000000","ELEMENT_SET_NO":"999","MEAN_ANOMALY":"86.9133","LAUNCH_DATE":"2022-12-28","ARG_OF_PERICENTER":"273.1566","DECAY_DATE":null,"PERIAPSIS":"558.222","INCLINATION":"43.0028","BSTAR":"0.00004672600000","REV_AT_EPOCH":"2747","OBJECT_NAME":"STARLINK-5398","RCS_SIZE":"LARGE","CLASSIFICATION_TYPE":"U","PERIOD":"95.838","REF_FRAME":"TEME","MEAN_MOTION_DOT":"0.00000428","CENTER_NAME":"EARTH","EPHEMERIS_TYPE":"0","MEAN_MOTION":"15.02533439","SITE":"AFETR","ECCENTRICITY":"0.00012510","COUNTRY_CODE":"US","MEAN_ELEMENT_THEORY":"SGP4","EPOCH":"2023-06-25T11:05:33.283392","APOAPSIS":"559.957","OBJECT_TYPE":"PAYLOAD","TLE_LINE2":"2 54866  43.0028  89.7790 0001251 273.1566  86.9133 15.02533439 27472"},{"COUNTRY_CODE":"US","SITE":"AFETR","ECCENTRICITY":"0.00009140","MEAN_MOTION":"15.02539025","EPHEMERIS_TYPE":"0","CENTER_NAME":"EARTH","REF_FRAME":"TEME","MEAN_MOTION_DOT":"0.00001773","PERIOD":"95.838","OBJECT_TYPE":"PAYLOAD","TLE_LINE2":"2 54867  43.0023  89.1431 0000914 281.4102  78.6638 15.02539025 27371","APOAPSIS":"559.706","EPOCH":"2023-06-25T14:32:59.494560","MEAN_ELEMENT_THEORY":"SGP4","OBJECT_NAME":"STARLINK-5396","REV_AT_EPOCH":"2737","INCLINATION":"43.0023","BSTAR":"0.00014624000000","CLASSIFICATION_TYPE":"U","RCS_SIZE":"LARGE","ELEMENT_SET_NO":"999","MEAN_MOTION_DDOT":"0.0000000000000","RA_OF_ASC_NODE":"89.1431","PERIAPSIS":"558.438","DECAY_DATE":null,"ARG_OF_PERICENTER":"281.4102","LAUNCH_DATE":"2022-12-28","MEAN_ANOMALY":"78.6638","OBJECT_ID":"2022-177AZ","FILE":"3942705","SEMIMAJOR_AXIS":"6937.207","TIME_SYSTEM":"UTC","NORAD_CAT_ID":"54867","GP_ID":"234551423","TLE_LINE1":"1 54867U 22177AZ  23176.60624415  .00001773  00000-0  14624-3 0  9994"},{"CLASSIFICATION_TYPE":"U","RCS_SIZE":"LARGE","REV_AT_EPOCH":"2734","OBJECT_NAME":"STARLINK-5379","INCLINATION":"43.0048","BSTAR":"0.00009257500000","APOAPSIS":"559.982","OBJECT_TYPE":"PAYLOAD","TLE_LINE2":"2 54868  43.0048  89.7342 0001307 274.6421  85.4272 15.02538184 27343","MEAN_ELEMENT_THEORY":"SGP4","EPOCH":"2023-06-25T10:57:33.408288","EPHEMERIS_TYPE":"0","MEAN_MOTION":"15.02538184","SITE":"AFETR","ECCENTRICITY":"0.00013070","COUNTRY_CODE":"US","PERIOD":"95.838","MEAN_MOTION_DOT":"0.00001047","REF_FRAME":"TEME","CENTER_NAME":"EARTH","NORAD_CAT_ID":"54868","GP_ID":"234551039","TLE_LINE1":"1 54868U 22177BA  23176.45663667  .00001047  00000-0  92575-4 0  9996","FILE":"3942714","OBJECT_ID":"2022-177BA","TIME_SYSTEM":"UTC","SEMIMAJOR_AXIS":"6937.210","LAUNCH_DATE":"2022-12-28","ARG_OF_PERICENTER":"274.6421","DECAY_DATE":null,"PERIAPSIS":"558.168","MEAN_ANOMALY":"85.4272","MEAN_MOTION_DDOT":"0.0000000000000","ELEMENT_SET_NO":"999","RA_OF_ASC_NODE":"89.7342"},{"RCS_SIZE":"LARGE","CLASSIFICATION_TYPE":"U","INCLINATION":"43.0061","BSTAR":"-0.00004458400000","REV_AT_EPOCH":"2734","OBJECT_NAME":"STARLINK-5402","MEAN_ELEMENT_THEORY":"SGP4","EPOCH":"2023-06-25T11:07:09.119136","TLE_LINE2":"2 54869  43.0061  89.7852 0001722 260.5662  99.4985 15.02531780 27348","OBJECT_TYPE":"PAYLOAD","APOAPSIS":"560.289","CENTER_NAME":"EARTH","PERIOD":"95.838","MEAN_MOTION_DOT":"-0.00000806","REF_FRAME":"TEME","SITE":"AFETR","ECCENTRICITY":"0.00017220","COUNTRY_CODE":"US","EPHEMERIS_TYPE":"0","MEAN_MOTION":"15.02531780","TLE_LINE1":"1 54869U 22177BB  23176.46329999 -.00000806  00000-0 -44584-4 0  9996","GP_ID":"234551728","NORAD_CAT_ID":"54869","SEMIMAJOR_AXIS":"6937.230","TIME_SYSTEM":"UTC","OBJECT_ID":"2022-177BB","FILE":"3942745","MEAN_ANOMALY":"99.4985","ARG_OF_PERICENTER":"260.5662","PERIAPSIS":"557.900","DECAY_DATE":null,"LAUNCH_DATE":"2022-12-28","RA_OF_ASC_NODE":"89.7852","ELEMENT_SET_NO":"999","MEAN_MOTION_DDOT":"0.0000000000000"},{"TLE_LINE1":"1 54870U 22177BC  23176.12646780 -.00000408  00000-0 -15114-4 0  9996","GP_ID":"234538944","NORAD_CAT_ID":"54870","TIME_SYSTEM":"UTC","SEMIMAJOR_AXIS":"6937.211","FILE":"3942216","OBJECT_ID":"2022-177BC","MEAN_ANOMALY":"97.0971","LAUNCH_DATE":"2022-12-28","PERIAPSIS":"558.066","DECAY_DATE":null,"ARG_OF_PERICENTER":"262.9706","RA_OF_ASC_NODE":"91.5580","MEAN_MOTION_DDOT":"0.0000000000000","ELEMENT_SET_NO":"999","RCS_SIZE":"LARGE","CLASSIFICATION_TYPE":"U","BSTAR":"-0.00001511400000","INCLINATION":"43.0040","OBJECT_NAME":"STARLINK-5401","REV_AT_EPOCH":"2730","EPOCH":"2023-06-25T03:02:06.817920","MEAN_ELEMENT_THEORY":"SGP4","APOAPSIS":"560.086","OBJECT_TYPE":"PAYLOAD","TLE_LINE2":"2 54870  43.0040  91.5580 0001456 262.9706  97.0971 15.02537878 27304","REF_FRAME":"TEME","MEAN_MOTION_DOT":"-0.00000408","PERIOD":"95.838","CENTER_NAME":"EARTH","MEAN_MOTION":"15.02537878","EPHEMERIS_TYPE":"0","COUNTRY_CODE":"US","ECCENTRICITY":"0.00014560","SITE":"AFETR"},{"RCS_SIZE":"LARGE","CLASSIFICATION_TYPE":"U","INCLINATION":"43.0039","BSTAR":"0.00004317500000","REV_AT_EPOCH":"2738","OBJECT_NAME":"STARLINK-5397","MEAN_ELEMENT_THEORY":"SGP4","EPOCH":"2023-06-25T16:00:43.676352","APOAPSIS":"560.067","OBJECT_TYPE":"PAYLOAD","TLE_LINE2":"2 54871  43.0039  88.7378 0001411 262.3278  97.7404 15.02533856 27383","PERIOD":"95.838","MEAN_MOTION_DOT":"0.00000380","REF_FRAME":"TEME","CENTER_NAME":"EARTH","EPHEMERIS_TYPE":"0","MEAN_MOTION":"15.02533856","ECCENTRICITY":"0.00014110","SITE":"AFETR","COUNTRY_CODE":"US","TLE_LINE1":"1 54871U 22177BD  23176.66717218  .00000380  00000-0  43175-4 0  9996","GP_ID":"234552723","NORAD_CAT_ID":"54871","TIME_SYSTEM":"UTC","SEMIMAJOR_AXIS":"6937.223","FILE":"3942754","OBJECT_ID":"2022-177BD","MEAN_ANOMALY":"97.7404","LAUNCH_DATE":"2022-12-28","ARG_OF_PERICENTER":"262.3278","PERIAPSIS":"558.109","DECAY_DATE":null,"RA_OF_ASC_NODE":"88.7378","MEAN_MOTION_DDOT":"0.0000000000000","ELEMENT_SET_NO":"999"},{"OBJECT_TYPE":"PAYLOAD","TLE_LINE2":"2 54872  43.0036  91.5246 0001398 269.6710  90.3972 15.02543087 27298","APOAPSIS":"560.030","EPOCH":"2023-06-25T02:50:55.794912","MEAN_ELEMENT_THEORY":"SGP4","COUNTRY_CODE":"US","ECCENTRICITY":"0.00013980","SITE":"AFETR","MEAN_MOTION":"15.02543087","EPHEMERIS_TYPE":"0","CENTER_NAME":"EARTH","MEAN_MOTION_DOT":"0.00000225","REF_FRAME":"TEME","PERIOD":"95.838","CLASSIFICATION_TYPE":"U","RCS_SIZE":"LARGE","OBJECT_NAME":"STARLINK-5390","REV_AT_EPOCH":"2729","BSTAR":"0.00003171500000","INCLINATION":"43.0036","PERIAPSIS":"558.090","DECAY_DATE":null,"ARG_OF_PERICENTER":"269.6710","LAUNCH_DATE":"2022-12-28","MEAN_ANOMALY":"90.3972","ELEMENT_SET_NO":"999","MEAN_MOTION_DDOT":"0.0000000000000","RA_OF_ASC_NODE":"91.5246","GP_ID":"234538742","NORAD_CAT_ID":"54872","TLE_LINE1":"1 54872U 22177BE  23176.11870133  .00000225  00000-0  31715-4 0  9998","OBJECT_ID":"2022-177BE","FILE":"3942204","SEMIMAJOR_AXIS":"6937.195","TIME_SYSTEM":"UTC"},{"NORAD_CAT_ID":"54873","GP_ID":"234553700","TLE_LINE1":"1 54873U 22177BF  23176.45331240 -.00000488  00000-0 -21041-4 0  9991","OBJECT_ID":"2022-177BF","FILE":"3942799","SEMIMAJOR_AXIS":"6937.234","TIME_SYSTEM":"UTC","PERIAPSIS":"558.079","DECAY_DATE":null,"ARG_OF_PERICENTER":"274.0404","LAUNCH_DATE":"2022-12-28","MEAN_ANOMALY":"86.0270","ELEMENT_SET_NO":"999","MEAN_MOTION_DDOT":"0.0000000000000","RA_OF_ASC_NODE":"89.7099","CLASSIFICATION_TYPE":"U","RCS_SIZE":"LARGE","OBJECT_NAME":"STARLINK-5091","REV_AT_EPOCH":"2747","BSTAR":"-0.00002104100000","INCLINATION":"43.0056","OBJECT_TYPE":"PAYLOAD","TLE_LINE2":"2 54873  43.0056  89.7099 0001470 274.0404  86.0270 15.02530250 27478","APOAPSIS":"560.119","EPOCH":"2023-06-25T10:52:46.191360","MEAN_ELEMENT_THEORY":"SGP4","COUNTRY_CODE":"US","ECCENTRICITY":"0.00014700","SITE":"AFETR","MEAN_MOTION":"15.02530250","EPHEMERIS_TYPE":"0","CENTER_NAME":"EARTH","MEAN_MOTION_DOT":"-0.00000488","REF_FRAME":"TEME","PERIOD":"95.838"},{"SEMIMAJOR_AXIS":"6950.190","TIME_SYSTEM":"UTC","OBJECT_ID":"2023-010A","FILE":"3942535","TLE_LINE1":"1 55269U 23010A   23176.30676084  .00000425  00000-0  43404-4 0  9996","NORAD_CAT_ID":"55269","GP_ID":"234546829","RA_OF_ASC_NODE":"16.6039","ELEMENT_SET_NO":"999","MEAN_MOTION_DDOT":"0.0000000000000","MEAN_ANOMALY":"92.1444","PERIAPSIS":"569.881","DECAY_DATE":null,"ARG_OF_PERICENTER":"267.9357","LAUNCH_DATE":"2023-01-19","INCLINATION":"70.0004","BSTAR":"0.00004340400000","OBJECT_NAME":"STARLINK-5277","REV_AT_EPOCH":"2442","RCS_SIZE":"LARGE","CLASSIFICATION_TYPE":"U","CENTER_NAME":"EARTH","REF_FRAME":"TEME","MEAN_MOTION_DOT":"0.00000425","PERIOD":"96.107","COUNTRY_CODE":"US","SITE":"AFWTR","ECCENTRICITY":"0.00031270","MEAN_MOTION":"14.98331049","EPHEMERIS_TYPE":"0","EPOCH":"2023-06-25T07:21:44.136576","MEAN_ELEMENT_THEORY":"SGP4","OBJECT_TYPE":"PAYLOAD","TLE_LINE2":"2 55269  70.0004  16.6039 0003127 267.9357  92.1444 14.98331049 24425","APOAPSIS":"574.228"},{"TIME_SYSTEM":"UTC","SEMIMAJOR_AXIS":"6950.195","FILE":"3942799","OBJECT_ID":"2023-010B","TLE_LINE1":"1 55270U 23010B   23176.65308301 -.00000514  00000-0 -35303-4 0  9990","GP_ID":"234553713","NORAD_CAT_ID":"55270","RA_OF_ASC_NODE":"15.8070","MEAN_MOTION_DDOT":"0.0000000000000","ELEMENT_SET_NO":"999","MEAN_ANOMALY":"91.7143","LAUNCH_DATE":"2023-01-19","DECAY_DATE":null,"PERIAPSIS":"569.923","ARG_OF_PERICENTER":"268.3664","BSTAR":"-0.00003530300000","INCLINATION":"70.0004","OBJECT_NAME":"STARLINK-5301","REV_AT_EPOCH":"2447","RCS_SIZE":"LARGE","CLASSIFICATION_TYPE":"U","REF_FRAME":"TEME","MEAN_MOTION_DOT":"-0.00000514","PERIOD":"96.107","CENTER_NAME":"EARTH","MEAN_MOTION":"14.98329287","EPHEMERIS_TYPE":"0","COUNTRY_CODE":"US","SITE":"AFWTR","ECCENTRICITY":"0.00030750","EPOCH":"2023-06-25T15:40:26.372064","MEAN_ELEMENT_THEORY":"SGP4","APOAPSIS":"574.197","TLE_LINE2":"2 55270  70.0004  15.8070 0003075 268.3664  91.7143 14.98329287 24478","OBJECT_TYPE":"PAYLOAD"}];
